[{"OBJECT_NAME":"SKYSAT-C4","OBJECT_ID":"2016-058B","EPOCH":"2026-03-09T23:30:00.435744","MEAN_MOTION":15.45385344,"ECCENTRICITY":9.71e-5,"INCLINATION":96.9292,"RA_OF_ASC_NODE":95.0711,"ARG_OF_PERICENTER":119.0883,"MEAN_ANOMALY":241.0464,"EPHEMERIS_TYPE":0,"CLASSIFICATION_TYPE":"U","NORAD_CAT_ID":41771,"ELEMENT_SET_NO":999,"REV_AT_EPOCH":53013,"BSTAR":0.00040419396,"MEAN_MOTION_DOT":0.00019246,"MEAN_MOTION_DDOT":0},{"OBJECT_NAME":"STARLINK-1266","OBJECT_ID":"2020-019Z","EPOCH":"2026-03-09T11:09:21.933216","MEAN_MOTION":15.45424585,"ECCENTRICITY":0.00043744,"INCLINATION":53.0503,"RA_OF_ASC_NODE":134.033,"ARG_OF_PERICENTER":12.7123,"MEAN_ANOMALY":347.3992,"EPHEMERIS_TYPE":0,"CLASSIFICATION_TYPE":"U","NORAD_CAT_ID":45383,"ELEMENT_SET_NO":999,"REV_AT_EPOCH":33016,"BSTAR":0.0017997323,"MEAN_MOTION_DOT":0.00088069,"MEAN_MOTION_DDOT":0}]
